[{"OBJECT_NAME":"JILIN-1 GAOFEN 2D","OBJECT_ID":"2021-086A","EPOCH":"2026-03-09T21:43:54.183072","MEAN_MOTION":15.09714905,"ECCENTRICITY":0.00351294,"INCLINATION":97.632,"RA_OF_ASC_NODE":191.8747,"ARG_OF_PERICENTER":123.7982,"MEAN_ANOMALY":236.66,"EPHEMERIS_TYPE":0,"CLASSIFICATION_TYPE":"U","NORAD_CAT_ID":49256,"ELEMENT_SET_NO":999,"REV_AT_EPOCH":24573,"BSTAR":0.00040994132,"MEAN_MOTION_DOT":6.64e-5,"MEAN_MOTION_DDOT":0},{"OBJECT_NAME":"ICEYE-X61","OBJECT_ID":"2025-276CS","EPOCH":"2026-03-09T17:37:00.817536","MEAN_MOTION":15.18776211,"ECCENTRICITY":0.00020811,"INCLINATION":97.4269,"RA_OF_ASC_NODE":144.0181,"ARG_OF_PERICENTER":344.9229,"MEAN_ANOMALY":15.1943,"EPHEMERIS_TYPE":0,"CLASSIFICATION_TYPE":"U","NORAD_CAT_ID":66754,"ELEMENT_SET_NO":999,"REV_AT_EPOCH":1532,"BSTAR":0.00047624581,"MEAN_MOTION_DOT":9.84e-5,"MEAN_MOTION_DDOT":0}]
